{"type": "FeatureCollection", "features": [ {"type": "Feature", "properties": {"norad_id": 30702, "name": "FENGYUN 1C DEB", "group": "fengyun-1c-debris", "lat": -46.292175163734356, "lon": 177.0410579053156, "alt_km": 875.4382698056006, "timestamp": "2025-12-12T11:38:31.690139+00:00", "meta": {"OBJECT_NAME": "FENGYUN 1C DEB", "OBJECT_ID": "1999-025ARL", "EPOCH": "2025-12-12T00:26:41.289216", "MEAN_MOTION": 14.03589349, "ECCENTRICITY": 0.0068545, "INCLINATION": 98.7696, "RA_OF_ASC_NODE": 5.8843, "ARG_OF_PERICENTER": 303.8626, "MEAN_ANOMALY": 87.6543, "EPHEMERIS_TYPE": 0, "CLASSIFICATION_TYPE": "U", "NORAD_CAT_ID": 30702, "ELEMENT_SET_NO": 999, "REV_AT_EPOCH": 96152, "BSTAR": 0.0010365, "MEAN_MOTION_DOT": 1.618e-05, "MEAN_MOTION_DDOT": 0}, "tle": {"line1": "1 30702U 99025ARL 25346.01853344  .00001618  00000+0  10365-2 0  9997", "line2": "2 30702  98.7696   5.8843 0068545 303.8626  87.6543 14.03589349961525"}}, "geometry": {"type": "Point", "coordinates": [177.0410579053156, -46.292175163734356]}}, {"type": "Feature", "properties": {"norad_id": 30703, "name": "FENGYUN 1C DEB", "group": "fengyun-1c-debris", "lat": -43.994757261385345, "lon": -19.549563256909824, "alt_km": 755.7658134405383, "timestamp": "2025-12-12T11:38:31.690150+00:00", "meta": {"OBJECT_NAME": "FENGYUN 1C DEB", "OBJECT_ID": "1999-025ARM", "EPOCH": "2025-12-11T22:26:40.975008", "MEAN_MOTION": 14.19319047, "ECCENTRICITY": 0.0117746, "INCLINATION": 99.1423, "RA_OF_ASC_NODE": 330.9385, "ARG_OF_PERICENTER": 294.3631, "MEAN_ANOMALY": 92.3561, "EPHEMERIS_TYPE": 0, "CLASSIFICATION_TYPE": "U", "NORAD_CAT_ID": 30703, "ELEMENT_SET_NO": 999, "REV_AT_EPOCH": 96529, "BSTAR": 0.0018639, "MEAN_MOTION_DOT": 4.147e-05, "MEAN_MOTION_DDOT": 0}, "tle": {"line1": "1 30703U 99025ARM 25345.93519647  .00004147  00000+0  18639-2 0  9995", "line2": "2 30703  99.1423 330.9385 0117746 294.3631  92.3561 14.19319047965294"}}, "geometry": {"type": "Point", "coordinates": [-19.549563256909824, -43.994757261385345]}}, {"type": "Feature", "properties": {"norad_id": 30704, "name": "FENGYUN 1C DEB", "group": "fengyun-1c-debris", "lat": -80.46582985195332, "lon": 53.66497477345817, "alt_km": 952.9576576881236, "timestamp": "2025-12-12T11:38:31.690159+00:00", "meta": {"OBJECT_NAME": "FENGYUN 1C DEB", "OBJECT_ID": "1999-025ARN", "EPOCH": "2025-12-12T00:24:46.016064", "MEAN_MOTION": 14.02046293, "ECCENTRICITY": 0.0081715, "INCLINATION": 98.8722, "RA_OF_ASC_NODE": 344.777, "ARG_OF_PERICENTER": 101.8489, "MEAN_ANOMALY": 331.2243, "EPHEMERIS_TYPE": 0, "CLASSIFICATION_TYPE": "U", "NORAD_CAT_ID": 30704, "ELEMENT_SET_NO": 999, "REV_AT_EPOCH": 96101, "BSTAR": 0.00059862, "MEAN_MOTION_DOT": 8.98e-06, "MEAN_MOTION_DDOT": 0}, "tle": {"line1": "1 30704U 99025ARN 25346.01719926  .00000898  00000+0  59862-3 0  9991", "line2": "2 30704  98.8722 344.7770 0081715 101.8489 331.2243 14.02046293961013"}}, "geometry": {"type": "Point", "coordinates": [53.66497477345817, -80.46582985195332]}}, {"type": "Feature", "properties": {"norad_id": 30705, "name": "FENGYUN 1C DEB", "group": "fengyun-1c-debris", "lat": -10.119975211407844, "lon": 92.79541804821635, "alt_km": 903.465978413964, "timestamp": "2025-12-12T11:38:31.690170+00:00", "meta": {"OBJECT_NAME": "FENGYUN 1C DEB", "OBJECT_ID": "1999-025ARP", "EPOCH": "2025-12-11T13:12:25.417152", "MEAN_MOTION": 13.81310468, "ECCENTRICITY": 0.01997345, "INCLINATION": 102.18, "RA_OF_ASC_NODE": 89.3834, "ARG_OF_PERICENTER": 284.9663, "MEAN_ANOMALY": 96.4341, "EPHEMERIS_TYPE": 0, "CLASSIFICATION_TYPE": "U", "NORAD_CAT_ID": 30705, "ELEMENT_SET_NO": 999, "REV_AT_EPOCH": 93993, "BSTAR": 0.0033165869, "MEAN_MOTION_DOT": 4.031e-05, "MEAN_MOTION_DDOT": 0}, "tle": {"line1": "1 30705U 99025ARP 25345.55029418  .00004031  00000+0  33166-2 0  9991", "line2": "2 30705 102.1800  89.3834 0199734 284.9663  96.4341 13.81310468939930"}}, "geometry": {"type": "Point", "coordinates": [92.79541804821635, -10.119975211407844]}}, {"type": "Feature", "properties": {"norad_id": 30706, "name": "FENGYUN 1C DEB", "group": "fengyun-1c-debris", "lat": -63.53924856822288, "lon": 42.37610081094622, "alt_km": 819.1427368548439, "timestamp": "2025-12-12T11:38:31.690179+00:00", "meta": {"OBJECT_NAME": "FENGYUN 1C DEB", "OBJECT_ID": "1999-025ARQ", "EPOCH": "2025-12-12T03:45:55.956096", "MEAN_MOTION": 14.26421623, "ECCENTRICITY": 0.0026504, "INCLINATION": 99.0643, "RA_OF_ASC_NODE": 240.7438, "ARG_OF_PERICENTER": 130.0285, "MEAN_ANOMALY": 230.3226, "EPHEMERIS_TYPE": 0, "CLASSIFICATION_TYPE": "U", "NORAD_CAT_ID": 30706, "ELEMENT_SET_NO": 999, "REV_AT_EPOCH": 97619, "BSTAR": 0.0013201, "MEAN_MOTION_DOT": 3.142e-05, "MEAN_MOTION_DDOT": 0}, "tle": {"line1": "1 30706U 99025ARQ 25346.15689764  .00003142  00000+0  13201-2 0  9995", "line2": "2 30706  99.0643 240.7438 0026504 130.0285 230.3226 14.26421623976194"}}, "geometry": {"type": "Point", "coordinates": [42.37610081094622, -63.53924856822288]}}, {"type": "Feature", "properties": {"norad_id": 30707, "name": "FENGYUN 1C DEB", "group": "fengyun-1c-debris", "lat": 62.61593871055644, "lon": -120.48155916646465, "alt_km": 782.5269197726975, "timestamp": "2025-12-12T11:38:31.690189+00:00", "meta": {"OBJECT_NAME": "FENGYUN 1C DEB", "OBJECT_ID": "1999-025ARR", "EPOCH": "2025-12-12T02:49:27.346368", "MEAN_MOTION": 14.26679363, "ECCENTRICITY": 0.0027828, "INCLINATION": 99.4127, "RA_OF_ASC_NODE": 40.4463, "ARG_OF_PERICENTER": 71.8098, "MEAN_ANOMALY": 317.7527, "EPHEMERIS_TYPE": 0, "CLASSIFICATION_TYPE": "U", "NORAD_CAT_ID": 30707, "ELEMENT_SET_NO": 999, "REV_AT_EPOCH": 96794, "BSTAR": 0.0022821, "MEAN_MOTION_DOT": 5.494e-05, "MEAN_MOTION_DDOT": 0}, "tle": {"line1": "1 30707U 99025ARR 25346.11767762  .00005494  00000+0  22821-2 0  9997", "line2": "2 30707  99.4127  40.4463 0027828  71.8098 317.7527 14.26679363967946"}}, "geometry": {"type": "Point", "coordinates": [-120.48155916646465, 62.61593871055644]}}, {"type": "Feature", "properties": {"norad_id": 30708, "name": "FENGYUN 1C DEB", "group": "fengyun-1c-debris", "lat": -12.098418834471317, "lon": 178.25092960126875, "alt_km": 850.4710552913593, "timestamp": "2025-12-12T11:38:31.690199+00:00", "meta": {"OBJECT_NAME": "FENGYUN 1C DEB", "OBJECT_ID": "1999-025ARS", "EPOCH": "2025-12-12T00:40:15.881376", "MEAN_MOTION": 14.12178229, "ECCENTRICITY": 0.0008025, "INCLINATION": 98.6905, "RA_OF_ASC_NODE": 359.6866, "ARG_OF_PERICENTER": 196.6553, "MEAN_ANOMALY": 192.811, "EPHEMERIS_TYPE": 0, "CLASSIFICATION_TYPE": "U", "NORAD_CAT_ID": 30708, "ELEMENT_SET_NO": 999, "REV_AT_EPOCH": 96826, "BSTAR": 0.0002221, "MEAN_MOTION_DOT": 3.65e-06, "MEAN_MOTION_DDOT": 0}, "tle": {"line1": "1 30708U 99025ARS 25346.02796159  .00000365  00000+0  22210-3 0  9995", "line2": "2 30708  98.6905 359.6866 0008025 196.6553 192.8110 14.12178229968260"}}, "geometry": {"type": "Point", "coordinates": [178.25092960126875, -12.098418834471317]}}, {"type": "Feature", "properties": {"norad_id": 30709, "name": "FENGYUN 1C DEB", "group": "fengyun-1c-debris", "lat": -33.89348771727843, "lon": 138.22152144048985, "alt_km": 806.8893318728005, "timestamp": "2025-12-12T11:38:31.690241+00:00", "meta": {"OBJECT_NAME": "FENGYUN 1C DEB", "OBJECT_ID": "1999-025ART", "EPOCH": "2025-12-11T15:59:27.684096", "MEAN_MOTION": 14.1746036, "ECCENTRICITY": 0.00826151, "INCLINATION": 99.1451, "RA_OF_ASC_NODE": 323.5918, "ARG_OF_PERICENTER": 273.2103, "MEAN_ANOMALY": 85.9621, "EPHEMERIS_TYPE": 0, "CLASSIFICATION_TYPE": "U", "NORAD_CAT_ID": 30709, "ELEMENT_SET_NO": 999, "REV_AT_EPOCH": 95981, "BSTAR": 0.0041293138, "MEAN_MOTION_DOT": 8.618e-05, "MEAN_MOTION_DDOT": 0}, "tle": {"line1": "1 30709U 99025ART 25345.66629264  .00008618  00000+0  41293-2 0  9997", "line2": "2 30709  99.1451 323.5918 0082615 273.2103  85.9621 14.17460360959816"}}, "geometry": {"type": "Point", "coordinates": [138.22152144048985, -33.89348771727843]}}, {"type": "Feature", "properties": {"norad_id": 30710, "name": "FENGYUN 1C DEB", "group": "fengyun-1c-debris", "lat": 64.4469162615035, "lon": 83.85035339543087, "alt_km": 763.6178787396602, "timestamp": "2025-12-12T11:38:31.690255+00:00", "meta": {"OBJECT_NAME": "FENGYUN 1C DEB", "OBJECT_ID": "1999-025ARU", "EPOCH": "2025-12-11T13:17:01.154976", "MEAN_MOTION": 13.94132538, "ECCENTRICITY": 0.02233197, "INCLINATION": 102.7457, "RA_OF_ASC_NODE": 234.3141, "ARG_OF_PERICENTER": 86.0724, "MEAN_ANOMALY": 31.5992, "EPHEMERIS_TYPE": 0, "CLASSIFICATION_TYPE": "U", "NORAD_CAT_ID": 30710, "ELEMENT_SET_NO": 999, "REV_AT_EPOCH": 94772, "BSTAR": 0.0031813803, "MEAN_MOTION_DOT": 5.119e-05, "MEAN_MOTION_DDOT": 0}, "tle": {"line1": "1 30710U 99025ARU 25345.55348559  .00005119  00000+0  31814-2 0  9993", "line2": "2 30710 102.7457 234.3141 0223319  86.0724  31.5992 13.94132538947721"}}, "geometry": {"type": "Point", "coordinates": [83.85035339543087, 64.4469162615035]}}, {"type": "Feature", "properties": {"norad_id": 30714, "name": "FENGYUN 1C DEB", "group": "fengyun-1c-debris", "lat": 81.10984280236113, "lon": -49.016807429973014, "alt_km": 921.8246772302437, "timestamp": "2025-12-12T11:38:31.690266+00:00", "meta": {"OBJECT_NAME": "FENGYUN 1C DEB", "OBJECT_ID": "1999-025ARY", "EPOCH": "2025-12-12T02:47:28.165344", "MEAN_MOTION": 14.03290618, "ECCENTRICITY": 0.0066639, "INCLINATION": 98.8373, "RA_OF_ASC_NODE": 34.6581, "ARG_OF_PERICENTER": 284.4486, "MEAN_ANOMALY": 102.3971, "EPHEMERIS_TYPE": 0, "CLASSIFICATION_TYPE": "U", "NORAD_CAT_ID": 30714, "ELEMENT_SET_NO": 999, "REV_AT_EPOCH": 95984, "BSTAR": 0.00076627, "MEAN_MOTION_DOT": 1.176e-05, "MEAN_MOTION_DDOT": 0}, "tle": {"line1": "1 30714U 99025ARY 25346.11629821  .00001176  00000+0  76627-3 0  9995", "line2": "2 30714  98.8373  34.6581 0066639 284.4486 102.3971 14.03290618959840"}}, "geometry": {"type": "Point", "coordinates": [-49.016807429973014, 81.10984280236113]}}]}